{
  "norad_id": 59414,
  "name": "STARLINK-31457",
  "history": [
    {
      "epoch": "2026-03-28T21:45:35.843040",
      "apogee_km": 483.91964627395737,
      "perigee_km": 482.1508360701837,
      "latitude_deg": -18.33276666187127,
      "longitude_deg": -151.5601744002197,
      "semi_major_axis_km": 6861.17224117207,
      "eccentricity": 0.0001289,
      "inclination_deg": 43.0033,
      "raan_deg": 300.7929,
      "arg_perigee_deg": 281.3707,
      "mean_anomaly_deg": 78.7,
      "mean_motion_rev_day": 15.27584627
    }
  ]
}